{"type": "FeatureCollection", "features": [ {"type": "Feature", "properties": {"norad_id": 34079, "name": "IRIDIUM 33 DEB", "group": "iridium-33-debris", "lat": 83.08474713037161, "lon": 150.77440371102358, "alt_km": 611.7183718548522, "timestamp": "2025-12-26T19:22:39.293509+00:00", "meta": {"OBJECT_NAME": "IRIDIUM 33 DEB", "OBJECT_ID": "1997-051CN", "EPOCH": "2025-12-26T11:32:13.953120", "MEAN_MOTION": 14.83901424, "ECCENTRICITY": 0.000384, "INCLINATION": 86.3777, "RA_OF_ASC_NODE": 2.4107, "ARG_OF_PERICENTER": 314.9753, "MEAN_ANOMALY": 196.8764, "EPHEMERIS_TYPE": 0, "CLASSIFICATION_TYPE": "U", "NORAD_CAT_ID": 34079, "ELEMENT_SET_NO": 999, "REV_AT_EPOCH": 89181, "BSTAR": 0.0018990434, "MEAN_MOTION_DOT": 0.00015813, "MEAN_MOTION_DDOT": 0}, "tle": {"line1": "1 34079U 97051CN  25360.48071705  .00015813  00000+0  18990-2 0  9999", "line2": "2 34079  86.3777   2.4107 0003840 314.9753 196.8764 14.83901424891818"}}, "geometry": {"type": "Point", "coordinates": [150.77440371102358, 83.08474713037161]}}, {"type": "Feature", "properties": {"norad_id": 34088, "name": "IRIDIUM 33 DEB", "group": "iridium-33-debris", "lat": -51.05779885727539, "lon": -151.25671655860745, "alt_km": 599.3494313591782, "timestamp": "2025-12-26T19:22:39.293521+00:00", "meta": {"OBJECT_NAME": "IRIDIUM 33 DEB", "OBJECT_ID": "1997-051CX", "EPOCH": "2025-12-26T14:04:54.130368", "MEAN_MOTION": 14.92012615, "ECCENTRICITY": 0.00071798, "INCLINATION": 86.3846, "RA_OF_ASC_NODE": 24.3573, "ARG_OF_PERICENTER": 134.1016, "MEAN_ANOMALY": 352.4907, "EPHEMERIS_TYPE": 0, "CLASSIFICATION_TYPE": "U", "NORAD_CAT_ID": 34088, "ELEMENT_SET_NO": 999, "REV_AT_EPOCH": 88948, "BSTAR": 0.0024249479, "MEAN_MOTION_DOT": 0.00024675, "MEAN_MOTION_DDOT": 0}, "tle": {"line1": "1 34088U 97051CX  25360.58673762  .00024675  00000+0  24249-2 0  9991", "line2": "2 34088  86.3846  24.3573 0007179 134.1016 352.4907 14.92012615889482"}}, "geometry": {"type": "Point", "coordinates": [-151.25671655860745, -51.05779885727539]}}, {"type": "Feature", "properties": {"norad_id": 34091, "name": "IRIDIUM 33 DEB", "group": "iridium-33-debris", "lat": -56.58107566568499, "lon": 54.82047775755151, "alt_km": 615.5504643944114, "timestamp": "2025-12-26T19:22:39.293532+00:00", "meta": {"OBJECT_NAME": "IRIDIUM 33 DEB", "OBJECT_ID": "1997-051DA", "EPOCH": "2025-12-26T03:26:13.490880", "MEAN_MOTION": 14.82802245, "ECCENTRICITY": 0.00343844, "INCLINATION": 86.3408, "RA_OF_ASC_NODE": 60.6907, "ARG_OF_PERICENTER": 245.3053, "MEAN_ANOMALY": 114.4589, "EPHEMERIS_TYPE": 0, "CLASSIFICATION_TYPE": "U", "NORAD_CAT_ID": 34091, "ELEMENT_SET_NO": 999, "REV_AT_EPOCH": 88065, "BSTAR": 0.0044294719, "MEAN_MOTION_DOT": 0.00036356, "MEAN_MOTION_DDOT": 0}, "tle": {"line1": "1 34091U 97051DA  25360.14321170  .00036356  00000+0  44295-2 0  9992", "line2": "2 34091  86.3408  60.6907 0034384 245.3053 114.4589 14.82802245880655"}}, "geometry": {"type": "Point", "coordinates": [54.82047775755151, -56.58107566568499]}}, {"type": "Feature", "properties": {"norad_id": 34097, "name": "IRIDIUM 33 DEB", "group": "iridium-33-debris", "lat": -50.50533071945534, "lon": -9.426974939234775, "alt_km": 724.6862359382194, "timestamp": "2025-12-26T19:22:39.293542+00:00", "meta": {"OBJECT_NAME": "IRIDIUM 33 DEB", "OBJECT_ID": "1997-051DG", "EPOCH": "2025-12-26T09:34:04.478880", "MEAN_MOTION": 14.34889238, "ECCENTRICITY": 0.00812248, "INCLINATION": 86.2008, "RA_OF_ASC_NODE": 355.3778, "ARG_OF_PERICENTER": 317.4049, "MEAN_ANOMALY": 42.0864, "EPHEMERIS_TYPE": 0, "CLASSIFICATION_TYPE": "U", "NORAD_CAT_ID": 34097, "ELEMENT_SET_NO": 999, "REV_AT_EPOCH": 87315, "BSTAR": 0.0016348618, "MEAN_MOTION_DOT": 4.839e-05, "MEAN_MOTION_DDOT": 0}, "tle": {"line1": "1 34097U 97051DG  25360.39866295  .00004839  00000+0  16349-2 0  9997", "line2": "2 34097  86.2008 355.3778 0081224 317.4049  42.0864 14.34889238873150"}}, "geometry": {"type": "Point", "coordinates": [-9.426974939234775, -50.50533071945534]}}, {"type": "Feature", "properties": {"norad_id": 34145, "name": "IRIDIUM 33 DEB", "group": "iridium-33-debris", "lat": -58.125260168669556, "lon": 152.3759697003007, "alt_km": 796.7826237407162, "timestamp": "2025-12-26T19:22:39.293553+00:00", "meta": {"OBJECT_NAME": "IRIDIUM 33 DEB", "OBJECT_ID": "1997-051DY", "EPOCH": "2025-12-26T14:56:53.036448", "MEAN_MOTION": 14.42393887, "ECCENTRICITY": 0.00553995, "INCLINATION": 86.2128, "RA_OF_ASC_NODE": 326.3433, "ARG_OF_PERICENTER": 49.7595, "MEAN_ANOMALY": 310.8432, "EPHEMERIS_TYPE": 0, "CLASSIFICATION_TYPE": "U", "NORAD_CAT_ID": 34145, "ELEMENT_SET_NO": 999, "REV_AT_EPOCH": 87838, "BSTAR": 0.0014607549, "MEAN_MOTION_DOT": 4.939e-05, "MEAN_MOTION_DDOT": 0}, "tle": {"line1": "1 34145U 97051DY  25360.62283607  .00004939  00000+0  14608-2 0  9994", "line2": "2 34145  86.2128 326.3433 0055399  49.7595 310.8432 14.42393887878384"}}, "geometry": {"type": "Point", "coordinates": [152.3759697003007, -58.125260168669556]}}, {"type": "Feature", "properties": {"norad_id": 34146, "name": "IRIDIUM 33 DEB", "group": "iridium-33-debris", "lat": -37.81383285918072, "lon": 166.47589708586545, "alt_km": 721.2133950520792, "timestamp": "2025-12-26T19:22:39.293564+00:00", "meta": {"OBJECT_NAME": "IRIDIUM 33 DEB", "OBJECT_ID": "1997-051DZ", "EPOCH": "2025-12-26T05:10:53.931072", "MEAN_MOTION": 14.49135058, "ECCENTRICITY": 0.00270494, "INCLINATION": 86.2845, "RA_OF_ASC_NODE": 343.8464, "ARG_OF_PERICENTER": 175.301, "MEAN_ANOMALY": 198.4852, "EPHEMERIS_TYPE": 0, "CLASSIFICATION_TYPE": "U", "NORAD_CAT_ID": 34146, "ELEMENT_SET_NO": 999, "REV_AT_EPOCH": 88302, "BSTAR": 0.00092782077, "MEAN_MOTION_DOT": 3.563e-05, "MEAN_MOTION_DDOT": 0}, "tle": {"line1": "1 34146U 97051DZ  25360.21590198  .00003563  00000+0  92782-3 0  9998", "line2": "2 34146  86.2845 343.8464 0027049 175.3010 198.4852 14.49135058883022"}}, "geometry": {"type": "Point", "coordinates": [166.47589708586545, -37.81383285918072]}}, {"type": "Feature", "properties": {"norad_id": 34159, "name": "IRIDIUM 33 DEB", "group": "iridium-33-debris", "lat": 62.74658492572847, "lon": -144.8777472757472, "alt_km": 767.0668060643529, "timestamp": "2025-12-26T19:22:39.293575+00:00", "meta": {"OBJECT_NAME": "IRIDIUM 33 DEB", "OBJECT_ID": "1997-051EN", "EPOCH": "2025-12-26T02:08:20.180544", "MEAN_MOTION": 14.38525461, "ECCENTRICITY": 0.00262795, "INCLINATION": 86.3493, "RA_OF_ASC_NODE": 42.5483, "ARG_OF_PERICENTER": 240.6679, "MEAN_ANOMALY": 119.1893, "EPHEMERIS_TYPE": 0, "CLASSIFICATION_TYPE": "U", "NORAD_CAT_ID": 34159, "ELEMENT_SET_NO": 999, "REV_AT_EPOCH": 88151, "BSTAR": 0.00037825721, "MEAN_MOTION_DOT": 1.179e-05, "MEAN_MOTION_DDOT": 0}, "tle": {"line1": "1 34159U 97051EN  25360.08912246  .00001179  00000+0  37826-3 0  9998", "line2": "2 34159  86.3493  42.5483 0026279 240.6679 119.1893 14.38525461881517"}}, "geometry": {"type": "Point", "coordinates": [-144.8777472757472, 62.74658492572847]}}, {"type": "Feature", "properties": {"norad_id": 34350, "name": "IRIDIUM 33 DEB", "group": "iridium-33-debris", "lat": 45.0634880645441, "lon": 173.01151579093536, "alt_km": 724.5257067913644, "timestamp": "2025-12-26T19:22:39.293590+00:00", "meta": {"OBJECT_NAME": "IRIDIUM 33 DEB", "OBJECT_ID": "1997-051ES", "EPOCH": "2025-12-26T11:11:35.511936", "MEAN_MOTION": 14.45418943, "ECCENTRICITY": 0.00235307, "INCLINATION": 86.3274, "RA_OF_ASC_NODE": 356.8502, "ARG_OF_PERICENTER": 93.2383, "MEAN_ANOMALY": 67.9711, "EPHEMERIS_TYPE": 0, "CLASSIFICATION_TYPE": "U", "NORAD_CAT_ID": 34350, "ELEMENT_SET_NO": 999, "REV_AT_EPOCH": 88491, "BSTAR": 0.00036255086, "MEAN_MOTION_DOT": 1.3e-05, "MEAN_MOTION_DDOT": 0}, "tle": {"line1": "1 34350U 97051ES  25360.46638324  .00001300  00000+0  36255-3 0  9996", "line2": "2 34350  86.3274 356.8502 0023530  93.2383  67.9711 14.45418943884911"}}, "geometry": {"type": "Point", "coordinates": [173.01151579093536, 45.0634880645441]}}, {"type": "Feature", "properties": {"norad_id": 34366, "name": "IRIDIUM 33 DEB", "group": "iridium-33-debris", "lat": -3.242130430598525, "lon": -136.60097009044452, "alt_km": 714.7355560950091, "timestamp": "2025-12-26T19:22:39.293602+00:00", "meta": {"OBJECT_NAME": "IRIDIUM 33 DEB", "OBJECT_ID": "1997-051FJ", "EPOCH": "2025-12-26T03:56:31.227648", "MEAN_MOTION": 14.54157583, "ECCENTRICITY": 0.00230515, "INCLINATION": 86.3679, "RA_OF_ASC_NODE": 43.4727, "ARG_OF_PERICENTER": 98.1181, "MEAN_ANOMALY": 320.0434, "EPHEMERIS_TYPE": 0, "CLASSIFICATION_TYPE": "U", "NORAD_CAT_ID": 34366, "ELEMENT_SET_NO": 999, "REV_AT_EPOCH": 88377, "BSTAR": 0.00085396715, "MEAN_MOTION_DOT": 3.644e-05, "MEAN_MOTION_DDOT": 0}, "tle": {"line1": "1 34366U 97051FJ  25360.16425032  .00003644  00000+0  85397-3 0  9994", "line2": "2 34366  86.3679  43.4727 0023051  98.1181 320.0434 14.54157583883771"}}, "geometry": {"type": "Point", "coordinates": [-136.60097009044452, -3.242130430598525]}}, {"type": "Feature", "properties": {"norad_id": 34375, "name": "IRIDIUM 33 DEB", "group": "iridium-33-debris", "lat": 71.50764235230152, "lon": -172.21815851226944, "alt_km": 751.7938399285749, "timestamp": "2025-12-26T19:22:39.293613+00:00", "meta": {"OBJECT_NAME": "IRIDIUM 33 DEB", "OBJECT_ID": "1997-051FT", "EPOCH": "2025-12-26T12:31:30.469152", "MEAN_MOTION": 14.18016957, "ECCENTRICITY": 0.0103684, "INCLINATION": 86.4324, "RA_OF_ASC_NODE": 177.1462, "ARG_OF_PERICENTER": 83.6449, "MEAN_ANOMALY": 331.8283, "EPHEMERIS_TYPE": 0, "CLASSIFICATION_TYPE": "U", "NORAD_CAT_ID": 34375, "ELEMENT_SET_NO": 999, "REV_AT_EPOCH": 86907, "BSTAR": 0.00041616692, "MEAN_MOTION_DOT": 9.18e-06, "MEAN_MOTION_DDOT": 0}, "tle": {"line1": "1 34375U 97051FT  25360.52188043  .00000918  00000+0  41617-3 0  9990", "line2": "2 34375  86.4324 177.1462 0103684  83.6449 331.8283 14.18016957869075"}}, "geometry": {"type": "Point", "coordinates": [-172.21815851226944, 71.50764235230152]}}]}